{
    "links": {
        "self": "http://www.neowsapp.com/rest/v1/neo/54017187?api_key=iIulBulltgU6a56xZRHN4H3l9WmuAYTsLGpBGhQ2"
    },
    "id": "54017187",
    "neo_reference_id": "54017187",
    "name": "(2020 KK3)",
    "designation": "2020 KK3",
    "nasa_jpl_url": "http://ssd.jpl.nasa.gov/sbdb.cgi?sstr=54017187",
    "absolute_magnitude_h": 25.441,
    "estimated_diameter": {
        "kilometers": {
            "estimated_diameter_min": 0.0216947663,
            "estimated_diameter_max": 0.0485109722
        },
        "meters": {
            "estimated_diameter_min": 21.6947663208,
            "estimated_diameter_max": 48.5109722492
        },
        "miles": {
            "estimated_diameter_min": 0.0134804986,
            "estimated_diameter_max": 0.0301433113
        },
        "feet": {
            "estimated_diameter_min": 71.1770571359,
            "estimated_diameter_max": 159.1567381942
        }
    },
    "is_potentially_hazardous_asteroid": false,
    "close_approach_data": [
        {
            "close_approach_date": "1907-11-16",
            "close_approach_date_full": "1907-Nov-16 04:17",
            "epoch_date_close_approach": -1960573380000,
            "relative_velocity": {
                "kilometers_per_second": "2.5899881909",
                "kilometers_per_hour": "9323.9574871487",
                "miles_per_hour": "5793.5445841675"
            },
            "miss_distance": {
                "astronomical": "1.915578693",
                "lunar": "745.160111577",
                "kilometers": "286566492.29018391",
                "miles": "178064161.364241558"
            },
            "orbiting_body": "Juptr"
        },
        {
            "close_approach_date": "1909-06-08",
            "close_approach_date_full": "1909-Jun-08 21:43",
            "epoch_date_close_approach": -1911262620000,
            "relative_velocity": {
                "kilometers_per_second": "11.4545024849",
                "kilometers_per_hour": "41236.2089456357",
                "miles_per_hour": "25622.5766084701"
            },
            "miss_distance": {
                "astronomical": "0.0379291414",
                "lunar": "14.7544360046",
                "kilometers": "5674118.764368818",
                "miles": "3525733.9097249684"
            },
            "orbiting_body": "Earth"
        },
        {
            "close_approach_date": "2020-06-07",
            "close_approach_date_full": "2020-Jun-07 07:14",
            "epoch_date_close_approach": 1591514040000,
            "relative_velocity": {
                "kilometers_per_second": "11.9145910264",
                "kilometers_per_hour": "42892.5276951642",
                "miles_per_hour": "26651.7486670313"
            },
            "miss_distance": {
                "astronomical": "0.0454738739",
                "lunar": "17.6893369471",
                "kilometers": "6802794.676088593",
                "miles": "4227060.6003168634"
            },
            "orbiting_body": "Earth"
        }
    ],
    "orbital_data": {
        "orbit_id": "3",
        "orbit_determination_date": "2020-05-31 06:03:26",
        "first_observation_date": "2020-05-19",
        "last_observation_date": "2020-05-30",
        "data_arc_in_days": 11,
        "observations_used": 25,
        "orbit_uncertainty": "8",
        "minimum_orbit_intersection": ".0433751",
        "jupiter_tisserand_invariant": "3.423",
        "epoch_osculation": "2458991.5",
        "eccentricity": ".5721940421194311",
        "semi_major_axis": "2.201526480483646",
        "inclination": "6.788461079578654",
        "ascending_node_longitude": "59.10535235263951",
        "orbital_period": "1193.120471318999",
        "perihelion_distance": ".9418261447827434",
        "perihelion_argument": "239.8306519893092",
        "aphelion_distance": "3.461226816184548",
        "perihelion_time": "2459040.484867171137",
        "mean_anomaly": "345.2198058741593",
        "mean_motion": ".3017297990051404",
        "equinox": "J2000",
        "orbit_class": {
            "orbit_class_type": "APO",
            "orbit_class_description": "Near-Earth asteroid orbits which cross the Earth’s orbit similar to that of 1862 Apollo",
            "orbit_class_range": "a (semi-major axis) > 1.0 AU; q (perihelion) < 1.017 AU"
        }
    },
    "is_sentry_object": false
}